#aV2010  8 10  0  0   .00000000      96 DD+AD WGS84 FIT  NGA
## 1596 172800.00000000   900.00000000 55418  .0000000000000
+   31     1  2  3  4  5  6  7  8  9 10 11 12 13 14 15 16 17
+         18 19 20 21 22 23 24 26 27 28 29 30 31 32  0  0  0
+          0  0  0  0  0  0  0  0  0  0  0  0  0  0  0  0  0
+          0  0  0  0  0  0  0  0  0  0  0  0  0  0  0  0  0
+          0  0  0  0  0  0  0  0  0  0  0  0  0  0  0  0  0
++         0  0  0  0  0  0  0  0  0  0  0  0  0  0  0  0  0
++         0  0  0  0  0  0  0  0  0  0  0  0  0  0  0  0  0
++         0  0  0  0  0  0  0  0  0  0  0  0  0  0  0  0  0
++         0  0  0  0  0  0  0  0  0  0  0  0  0  0  0  0  0
++         0  0  0  0  0  0  0  0  0  0  0  0  0  0  0  0  0
%c cc cc ccc ccc cccc cccc cccc cccc ccccc ccccc ccccc ccccc
%c cc cc ccc ccc cccc cccc cccc cccc ccccc ccccc ccccc ccccc
%f  0.0000000  0.000000000  0.00000000000  0.000000000000000
%f  0.0000000  0.000000000  0.00000000000  0.000000000000000
%i    0    0    0    0      0      0      0      0         0
%i    0    0    0    0      0      0      0      0         0
/*      NGA, ST. LOUIS,MO.                                  
/*   EPHEMERIS COMPUTED FROM  3 DAYS OF DATA                
/* CCCCCCCCCCCCCCCCCCCCCCCCCCCCCCCCCCCCCCCCCCCCCCCCCCCCCCCCC
/* CCCCCCCCCCCCCCCCCCCCCCCCCCCCCCCCCCCCCCCCCCCCCCCCCCCCCCCCC
*  2010  8 10 10 15   .00000000                                                 
P  1 -11069.521401 -10831.084721 -21706.123566   -150.402101                    
V  1  23077.511858 -14505.687730  -4430.343688      -.040135                    
P  2  13493.286505  14825.799019 -17650.546107    279.718189                    
V  2   -857.653700  22345.831591  17658.665190       .029229                    
P  3 -24968.185254  -9555.376634    471.440472    593.114080                    
V  3    348.852084  -3691.970677 -30786.174624       .049494                    
P  4   6904.406093  23979.601310  -8731.389972    143.486396                    
V  4  -3235.705733  11060.615553  28746.318036       .081994                    
P  5  20382.094391   1582.545250 -17015.579542    -22.509442                    
V  5 -17467.891549  12761.273972 -19662.955111      -.040607                    
P  6 -22799.601815 -13438.505590  -2964.269962    539.549025                    
V  6   5076.805588  -1391.735493 -30772.536865      -.148233                    
P  7  -6555.679329  23510.208259 -10254.595392     -1.917304                    
V  7  -2559.541230 -13005.061343 -28391.005706      -.000397                    
P  8   -197.468622  26201.713045   1736.640613      6.403340                    
V  8  -2337.604617   2128.972353 -32731.715754       .001519                    
P  9  13871.807496  -6386.182328  21182.157245     23.478634                    
V  9   1944.126563  28081.162549   7035.950540       .021800                    
P 10  10514.927190  11695.613176 -21614.839083    -49.299439                    
V 10 -23293.649366  13678.448058  -3617.631381      -.008806                    
P 11 -13267.241219  11672.044042  19476.578813    -81.517936                    
V 11  -8342.125789 -24414.727875   9193.390510      -.026676                    
P 12  23639.563556 -11510.372650   3147.551068    -84.604146                    
V 12  -2095.152065   4240.646412  31761.980207       .038684                    
P 13  -8967.813983  11542.618990 -22315.873036    300.045835                    
V 13 -23425.932199 -15168.174883   1533.554982      -.007854                    
P 14 -11400.237348 -18778.921242  15174.819520     76.972596                    
V 14  16815.794805   8740.995855  23538.762189       .039249                    
P 15  23807.391701   3324.708962  11449.518584   -226.091183                    
V 15  11659.332134   8948.973044 -26758.104717       .057706                    
P 16 -16711.179692  -6011.228105 -19804.753308    -97.861446                    
V 16  21358.453593 -13215.725003 -13716.692492      -.035463                    
P 17   8539.905573  18706.646090  17033.043146    165.913910                    
V 17 -19269.473211  -9311.530788  19803.097603       .016565                    
P 18  12983.254122 -18891.364043  13370.340585     86.134904                    
V 18  15979.335196  -5779.035540 -24585.425756       .022870                    
P 19 -23187.882917  -4808.401720  12370.275792    -56.496211                    
V 19 -11837.242688 -10321.344803 -25928.515222      -.030315                    
P 20 -22902.270339  13228.211135   1972.855197     52.338516                    
V 20    247.155243  -4510.399740  31095.226082      -.004198                    
P 21   4702.015915 -24829.730349  -6694.938917    -80.018500                    
V 21   4220.783729   9101.807722 -29886.962021      -.026693                    
P 22   1001.330843 -17619.780202  19994.415191    165.599576                    
V 22  22484.667260 -11327.567327 -11301.574859      -.008744                    
P 23 -17968.618728   4989.135593 -19056.574867    359.171896                    
V 23 -20433.600495 -12691.000549  15631.559399      -.016962                    
P 24 -10981.542072 -18313.944043  16047.270307    311.681849                    
V 24   2548.151076 -20083.237948 -21032.958148       .031699                    
P 26  23470.458599  12242.182731   3542.171107    -96.001398                    
V 26   3488.926410   4082.341630 -31708.113054      -.065481                    
P 27  15118.693320   -747.449041  22506.187057    178.379355                    
V 27   2063.154537  26809.331899   -325.798248       .035597                    
P 28  -4125.223834  17744.294086  19707.153941     -7.749585                    
V 28 -21575.227665  10713.762604 -14800.206402       .013096                    
P 29   9903.281906 -11677.154097 -21613.659552    140.889437                    
V 29  23655.927193  14322.109338   3130.072342       .028690                    
P 30  17421.982284 -18496.295500  -8064.438423    268.137413                    
V 30   9565.704515  -3162.382697  29449.181188       .032782                    
P 31  -7752.405137 -22773.680439 -10854.673122    -18.284637                    
V 31   1911.136145 -14166.373428  28003.323719       .028686                    
P 32 -24536.114989   5816.627206   8077.469247    -58.027488                    
V 32   7581.685838  -7015.628555  29640.558279      -.088164                    
EOF
